NORAD_CAT_ID,OBJECT_NAME,OBJECT_TYPE,EPOCH,MEAN_MOTION,ECCENTRICITY,INCLINATION,RA_OF_ASC_NODE,ARG_OF_PERICENTER,MEAN_ANOMALY,BSTAR,MEAN_MOTION_DOT,MEAN_MOTION_DDOT,TLE_LINE0,TLE_LINE1,TLE_LINE2,SEMIMAJOR_AXIS,PERIOD,APOGEE,PERIGEE,DECAYED
50179.0,STARLINK-3283,PAYLOAD,2022-10-08 19:04:44,15.08848592,0.0002109,53.2174,91.1456,41.6617,318.4536,-8.092800000000001e-05,-1.576e-05,0.0,0 STARLINK-3283,1 50179U 21125Z   22281.79496228 -.00001576  00000-0 -80928-4 0  9997,2 50179  53.2174  91.1456 0002109  41.6617 318.4536 15.08848592 48214,6917.854,95.437,541.178,538.26,0.0
50179.0,STARLINK-3283,PAYLOAD,2022-10-09 04:37:02,15.08853469,0.0002105,53.2175,89.3614,42.7521,317.3634,-3.1658e-05,-7.92e-06,0.0,0 STARLINK-3283,1 50179U 21125Z   22282.19239546 -.00000792  00000-0 -31658-4 0  9995,2 50179  53.2175  89.3614 0002105  42.7521 317.3634 15.08853469 47789,6917.839,95.437,541.16,538.248,0.0
50179.0,STARLINK-3283,PAYLOAD,2022-10-09 10:58:36,15.08839531,0.0001928,53.2171,88.1725,44.3237,315.791,7.8001e-05,9.53e-06,0.0,0 STARLINK-3283,1 50179U 21125Z   22282.45736287  .00000953  00000-0  78001-4 0  9998,2 50179  53.2171  88.1725 0001928  44.3237 315.7910 15.08839531 47827,6917.882,95.438,541.081,538.413,0.0
50179.0,STARLINK-3283,PAYLOAD,2022-10-09 17:20:08,15.08841651,0.0001996999999999,53.2174,86.9833,43.6558,316.4592,4.8563e-05,4.85e-06,0.0,0 STARLINK-3283,1 50179U 21125Z   22282.72232220  .00000485  00000-0  48563-4 0  9996,2 50179  53.2174  86.9833 0001997  43.6558 316.4592 15.08841651 48359,6917.875,95.437,541.122,538.359,0.0
50179.0,STARLINK-3283,PAYLOAD,2022-10-10 10:49:22,15.08847477,0.0002075,53.2188,83.713,37.8402,322.2735,0.00020505,2.977e-05,0.0,0 STARLINK-3283,1 50179U 21125Z   22283.45095370  .00002977  00000-0  20505-3 0  9993,2 50179  53.2188  83.7130 0002075  37.8402 322.2735 15.08847477 48468,6917.858,95.437,541.158,538.2869999999998,0.0
50179.0,STARLINK-3283,PAYLOAD,2022-10-10 20:21:41,15.08844989,0.0001954,53.2184,81.9287,46.9984,313.1171,0.00011828,1.595e-05,0.0,0 STARLINK-3283,1 50179U 21125Z   22283.84839526  .00001595  00000-0  11828-3 0  9998,2 50179  53.2184  81.9287 0001954  46.9984 313.1171 15.08844989 48523,6917.865,95.437,541.082,538.378,0.0
50179.0,STARLINK-3283,PAYLOAD,2022-10-11 04:18:37,15.08836459,0.000202,53.2171,80.4407,43.8156,316.2997,1.7361e-05,-1.2e-07,0.0,0 STARLINK-3283,1 50179U 21125Z   22284.17960262 -.00000012  00000-0  17361-4 0  9990,2 50179  53.2171  80.4407 0002020  43.8156 316.2997 15.08836459 48083,6917.891,95.438,541.154,538.359,0.0
50179.0,STARLINK-3283,PAYLOAD,2022-10-11 12:15:33,15.08835492,0.0002114,53.2179,78.9562,38.9992,321.1153,-2.6808e-05,-7.15e-06,0.0,0 STARLINK-3283,1 50179U 21125Z   22284.51080522 -.00000715  00000-0 -26808-4 0  9997,2 50179  53.2179  78.9562 0002114  38.9992 321.1153 15.08835492 48627,6917.894,95.438,541.222,538.297,0.0
50179.0,STARLINK-3283,PAYLOAD,2022-10-11 20:12:30,15.08827637,0.0002094,53.2174,77.4676,38.8441,321.2701,-7.352300000000001e-05,-1.458e-05,0.0,0 STARLINK-3283,1 50179U 21125Z   22284.84201426 -.00001458  00000-0 -73523-4 0  9992,2 50179  53.2174  77.4676 0002094  38.8441 321.2701 15.08827637 48180,6917.918000000002,95.438,541.232,538.335,0.0
50179.0,STARLINK-3283,PAYLOAD,2022-10-12 20:03:16,15.08839964,0.0001834,53.2179,73.0063,37.9283,322.1838,2.0616e-05,4e-07,0.0,0 STARLINK-3283,1 50179U 21125Z   22285.83560607  .00000040  00000-0  20616-4 0  9990,2 50179  53.2179  73.0063 0001834  37.9283 322.1838 15.08839964 48336,6917.88,95.438,541.014,538.477,0.0
50179.0,STARLINK-3283,PAYLOAD,2022-10-13 11:57:08,15.08833084,0.0001991,53.2168,70.0322,35.8166,324.2959,0.00026183,3.881e-05,0.0,0 STARLINK-3283,1 50179U 21125Z   22286.49801405  .00003881  00000-0  26183-3 0  9997,2 50179  53.2168  70.0322 0001991  35.8166 324.2959 15.08833084 48929,6917.901999999999,95.438,541.144,538.389,0.0
50179.0,STARLINK-3283,PAYLOAD,2022-10-13 18:18:40,15.08843484,0.0002099,53.2163,68.8431,25.7086,334.401,0.00034077,5.14e-05,0.0,0 STARLINK-3283,1 50179U 21125Z   22286.76297015  .00005140  00000-0  34077-3 0  9994,2 50179  53.2163  68.8431 0002099  25.7086 334.4010 15.08843484 48969,6917.87,95.437,541.187,538.283,0.0
50179.0,STARLINK-3283,PAYLOAD,2022-10-14 11:47:55,15.08838008,0.0002384,53.2165,65.5731,31.6265,328.487,9.7928e-05,1.27e-05,0.0,0 STARLINK-3283,1 50179U 21125Z   22287.49161361  .00001270  00000-0  97928-4 0  9994,2 50179  53.2165  65.5731 0002384  31.6265 328.4870 15.08838008 48581,6917.886,95.438,541.401,538.102,0.0
50179.0,STARLINK-3283,PAYLOAD,2022-10-14 18:09:27,15.08842894,0.000254,53.2167,64.3836,35.789,324.3272,0.00011488,1.541e-05,0.0,0 STARLINK-3283,1 50179U 21125Z   22287.75657120  .00001541  00000-0  11488-3 0  9993,2 50179  53.2167  64.3836 0002540  35.7890 324.3272 15.08842894 49118,6917.871999999999,95.437,541.494,537.979,0.0
50179.0,STARLINK-3283,PAYLOAD,2022-10-15 11:38:42,15.08839994,0.0002331999999999,53.2185,61.1144,48.5286,311.5906,-4.5135e-05,-1.007e-05,0.0,0 STARLINK-3283,1 50179U 21125Z   22288.48521250 -.00001007  00000-0 -45135-4 0  9994,2 50179  53.2185  61.1144 0002332  48.5286 311.5906 15.08839994 49226,6917.88,95.438,541.359,538.132,0.0
50179.0,STARLINK-3283,PAYLOAD,2022-10-15 18:00:14,15.08850457,0.0002256999999999,53.2179,59.9237,34.4723,325.6416,7.805899999999999e-05,9.55e-06,0.0,0 STARLINK-3283,1 50179U 21125Z   22288.75016721  .00000955  00000-0  78059-4 0  9996,2 50179  53.2179  59.9237 0002257  34.4723 325.6416 15.08850457 48771,6917.848000000001,95.437,541.275,538.1519999999998,0.0
50179.0,STARLINK-3283,PAYLOAD,2022-10-16 13:04:52,15.08841721,0.0002161,53.2178,56.3559,33.8275,326.2854,6.0899e-05,6.81e-06,0.0,0 STARLINK-3283,1 50179U 21125Z   22289.54504847  .00000681  00000-0  60899-4 0  9994,2 50179  53.2178  56.3559 0002161  33.8275 326.2854 15.08841721 48897,6917.875,95.437,541.235,538.245,0.0
50179.0,STARLINK-3283,PAYLOAD,2022-10-16 17:51:02,15.08832737,0.0002379,53.2179,55.4615,18.0117,342.0959,6.619300000000001e-05,7.65e-06,0.0,0 STARLINK-3283,1 50179U 21125Z   22289.74377511  .00000765  00000-0  66193-4 0  9998,2 50179  53.2179  55.4615 0002379  18.0117 342.0959 15.08832737 48925,6917.903,95.438,541.413,538.122,0.0
50179.0,STARLINK-3283,PAYLOAD,2022-10-17 01:47:57,15.08842874,0.0002415,53.2183,53.9754,32.0673,328.0466,9.7548e-05,1.265e-05,0.0,0 STARLINK-3283,1 50179U 21125Z   22290.07496774  .00001265  00000-0  97548-4 0  9993,2 50179  53.2183  53.9754 0002415  32.0673 328.0466 15.08842874 48976,6917.871999999999,95.437,541.4069999999998,538.066,0.0
50179.0,STARLINK-3283,PAYLOAD,2022-10-17 11:20:16,15.08836187,0.000241,53.2177,52.192,34.5784,325.5364,-5.2520000000000016e-06,-3.72e-06,0.0,0 STARLINK-3283,1 50179U 21125Z   22290.47241585 -.00000372  00000-0 -52520-5 0  9997,2 50179  53.2177  52.1920 0002410  34.5784 325.5364 15.08836187 49037,6917.892,95.438,541.424,538.09,0.0
50179.0,STARLINK-3283,PAYLOAD,2022-10-17 12:55:39,15.08837515,0.0002495,53.2178,51.8947,38.9493,321.1678,-1.7221e-05,-5.62e-06,0.0,0 STARLINK-3283,1 50179U 21125Z   22290.53865562 -.00000562  00000-0 -17221-4 0  9990,2 50179  53.2178  51.8947 0002495  38.9493 321.1678 15.08837515 49532,6917.888000000001,95.438,541.479,538.0269999999998,0.0
50179.0,STARLINK-3283,PAYLOAD,2022-10-17 17:41:48,15.08841824,0.0002322,53.2181,51.0021,34.291,325.8232,2.5937e-05,1.24e-06,0.0,0 STARLINK-3283,1 50179U 21125Z   22290.73737121  .00000124  00000-0  25937-4 0  9996,2 50179  53.2181  51.0021 0002322  34.2910 325.8232 15.08841824 49561,6917.875,95.437,541.346,538.133,0.0
50179.0,STARLINK-3283,PAYLOAD,2022-10-18 01:38:44,15.08845214,0.0002287,53.2179,49.5153,35.0479,325.0663,-1.2956e-05,-4.95e-06,0.0,0 STARLINK-3283,1 50179U 21125Z   22291.06856894 -.00000495  00000-0 -12956-4 0  9992,2 50179  53.2179  49.5153 0002287  35.0479 325.0663 15.08845214 49124,6917.864000000001,95.437,541.312,538.1469999999998,0.0
50179.0,STARLINK-3283,PAYLOAD,2022-10-18 08:00:17,15.08839678,0.0002506999999999,53.219,48.3256,37.379,322.7377,-8.9995e-05,-1.7199999999999998e-05,0.0,0 STARLINK-3283,1 50179U 21125Z   22291.33353462 -.00001720  00000-0 -89995-4 0  9994,2 50179  53.2190  48.3256 0002507  37.3790 322.7377 15.08839678 49655,6917.880999999999,95.438,541.481,538.012,0.0
50179.0,STARLINK-3283,PAYLOAD,2022-10-18 14:21:50,15.08827438,0.0002339,53.2185,47.1374,33.2473,326.8666,-6.8651e-05,-1.3800000000000008e-05,0.0,0 STARLINK-3283,1 50179U 21125Z   22291.59850329 -.00001380  00000-0 -68651-4 0  9994,2 50179  53.2185  47.1374 0002339  33.2473 326.8666 15.08827438 49694,6917.919,95.438,541.4019999999998,538.1659999999998,0.0
50179.0,STARLINK-3283,PAYLOAD,2022-10-19 11:01:50,15.0883592,0.0002457,53.2182,43.2712,35.2087,324.9067,9.528e-05,1.228e-05,0.0,0 STARLINK-3283,1 50179U 21125Z   22292.45961674  .00001228  00000-0  95280-4 0  9993,2 50179  53.2182  43.2712 0002457  35.2087 324.9067 15.08835920 49338,6917.893,95.438,541.4580000000002,538.058,0.0
50179.0,STARLINK-3283,PAYLOAD,2022-10-19 18:58:47,15.08832797,0.0002472,53.2186,41.785,32.5822,327.5322,8.5478e-06,-1.52e-06,0.0,0 STARLINK-3283,1 50179U 21125Z   22292.79082278 -.00000152  00000-0  85478-5 0  9999,2 50179  53.2186  41.7850 0002472  32.5822 327.5322 15.08832797 49873,6917.901999999999,95.438,541.4780000000002,538.057,0.0
50179.0,STARLINK-3283,PAYLOAD,2022-10-20 10:52:38,15.08826975,0.000234,53.2202,38.8107,27.422,332.6895,0.00010405,1.367e-05,0.0,0 STARLINK-3283,1 50179U 21125Z   22293.45322497  .00001367  00000-0  10405-3 0  9997,2 50179  53.2202  38.8107 0002340  27.4220 332.6895 15.08826975 49977,6917.92,95.438,541.404,538.1659999999998,0.0
50179.0,STARLINK-3283,PAYLOAD,2022-10-21 10:43:25,15.08832749,0.0002396999999999,53.2198,34.3519,34.8334,325.2815,5.4361e-05,5.77e-06,0.0,0 STARLINK-3283,1 50179U 21125Z   22294.44682603  .00000577  00000-0  54361-4 0  9997,2 50179  53.2198  34.3519 0002397  34.8334 325.2815 15.08832749 50124,6917.903,95.438,541.4259999999998,538.109,0.0
